$$SOE
2461302.500000000, A.D. 2026-Sep-19 00:00:00.0000, -6.319001457192596E+07, 1.150890912886325E+08, 7.046998177345924E+06,
2461309.500000000, A.D. 2026-Sep-26 00:00:00.0000, -8.167087218741967E+07, 1.130182176058602E+08, 7.849916836246766E+06,
2461316.500000000, A.D. 2026-Oct-03 00:00:00.0000, -9.870129920433769E+07, 1.089261488442117E+08, 8.512927619565524E+06,
2461323.500000000, A.D. 2026-Oct-10 00:00:00.0000, -1.142335235317979E+08, 1.031719997042021E+08, 9.046411012200050E+06,
2461330.500000000, A.D. 2026-Oct-17 00:00:00.0000, -1.282546906115718E+08, 9.604743072221692E+07, 9.460027292035379E+06,
2461337.500000000, A.D. 2026-Oct-24 00:00:00.0000, -1.407711471499581E+08, 8.779212434243914E+07, 9.762516617077146E+06,
2461344.500000000, A.D. 2026-Oct-31 00:00:00.0000, -1.517992121067935E+08, 7.860583061269309E+07, 9.961685758179378E+06,
2461351.500000000, A.D. 2026-Nov-07 00:00:00.0000, -1.613597116824536E+08, 6.865760025757186E+07, 1.006447415714608E+07,
2461358.500000000, A.D. 2026-Nov-14 00:00:00.0000, -1.694747250256011E+08, 5.809286137745206E+07, 1.007704883747704E+07,
2461365.500000000, A.D. 2026-Nov-21 00:00:00.0000, -1.761656464755262E+08, 4.703889017572576E+07, 1.000490528295283E+07,
2461372.500000000, A.D. 2026-Nov-28 00:00:00.0000, -1.814520411798369E+08, 3.560909890141521E+07, 9.852964293271700E+06,
2461379.500000000, A.D. 2026-Dec-05 00:00:00.0000, -1.853509796726020E+08, 2.390646165629856E+07, 9.625661013497330E+06,
2461386.500000000, A.D. 2026-Dec-12 00:00:00.0000, -1.878766649378866E+08, 1.202632242088370E+07, 9.327026049494267E+06,
2461393.500000000, A.D. 2026-Dec-19 00:00:00.0000, -1.890402419616164E+08, 5.876850380351627E+04, 8.960759994390348E+06,
2461400.500000000, A.D. 2026-Dec-26 00:00:00.0000, -1.888497239165815E+08, -1.190928847447504E+07, 8.530303207024734E+06,
2461407.500000000, A.D. 2027-Jan-02 00:00:00.0000, -1.873099980198799E+08, -2.379220784309859E+07, 8.038903161973854E+06,
2461414.500000000, A.D. 2027-Jan-09 00:00:00.0000, -1.844228946653402E+08, -3.550379092007844E+07, 7.489682130850709E+06,
2461421.500000000, A.D. 2027-Jan-16 00:00:00.0000, -1.801873198611980E+08, -4.695543442074274E+07, 6.885708486306701E+06,
2461428.500000000, A.D. 2027-Jan-23 00:00:00.0000, -1.745994667901273E+08, -5.805417187682155E+07, 6.230075699199146E+06,
2461435.500000000, A.D. 2027-Jan-30 00:00:00.0000, -1.676531408148950E+08, -6.870049968257943E+07, 5.525994287632797E+06,
2461442.500000000, A.D. 2027-Feb-06 00:00:00.0000, -1.593402576742497E+08, -7.878586605588126E+07, 4.776903829236038E+06,
2461449.500000000, A.D. 2027-Feb-13 00:00:00.0000, -1.496516142040722E+08, -8.818967163336031E+07, 3.986615126642950E+06,
2461456.500000000, A.D. 2027-Feb-20 00:00:00.0000, -1.385780939455948E+08, -9.677559011129047E+07, 3.159496988301892E+06,
2461463.500000000, A.D. 2027-Feb-27 00:00:00.0000, -1.261125650187086E+08, -1.043869609867684E+08, 2.300728330734074E+06,
2461470.500000000, A.D. 2027-Mar-06 00:00:00.0000, -1.122528905485775E+08, -1.108409262401231E+08, 1.416647132275611E+06,
2461477.500000000, A.D. 2027-Mar-13 00:00:00.0000, -9.700675958829603E+07, -1.159208965116849E+08, 5.152446373827606E+05,
2461484.500000000, A.D. 2027-Mar-20 00:00:00.0000, -8.039953687673861E+07, -1.193668593076725E+08, -3.931212790067792E+05,
2461491.500000000, A.D. 2027-Mar-27 00:00:00.0000, -6.248718198287129E+07, -1.208630566648915E+08, -1.294679879297733E+06,
2461498.500000000, A.D. 2027-Apr-03 00:00:00.0000, -4.337777577651926E+07, -1.200229025500627E+08, -2.170696261474252E+06,
2461505.500000000, A.D. 2027-Apr-10 00:00:00.0000, -2.326772634530367E+07, -1.163723197525645E+08, -2.995168781975523E+06,
2461512.500000000, A.D. 2027-Apr-17 00:00:00.0000, -2.502693952473329E+06, -1.093366079258726E+08, -3.731479413928151E+06,
2461519.500000000, A.D. 2027-Apr-24 00:00:00.0000, 1.832207011504799E+07, -9.824650659027621E+07, -4.327852214455165E+06,
2461526.500000000, A.D. 2027-May-01 00:00:00.0000, 3.820848802479109E+07, -8.240427612120947E+07, -4.712418470301259E+06,
2461533.500000000, A.D. 2027-May-08 00:00:00.0000, 5.556972672022039E+07, -6.129750078657355E+07, -4.791934297665689E+06,
2461540.500000000, A.D. 2027-May-15 00:00:00.0000, 6.816288777389321E+07, -3.507935125148570E+07, -4.465502425921259E+06,
2461547.500000000, A.D. 2027-May-22 00:00:00.0000, 7.353100173261255E+07, -5.246400968775623E+06, -3.669386607363260E+06,
2461554.500000000, A.D. 2027-May-29 00:00:00.0000, 7.021873147442976E+07, 2.517948307742378E+07, -2.441029420658317E+06,
2461561.500000000, A.D. 2027-Jun-05 00:00:00.0000, 5.885789879335450E+07, 5.278408272157696E+07, -9.306002700245678E+05,
2461568.500000000, A.D. 2027-Jun-12 00:00:00.0000, 4.172830236439741E+07, 7.535128530249687E+07, 6.758249053163193E+05,
2461575.500000000, A.D. 2027-Jun-19 00:00:00.0000, 2.137054721624537E+07, 9.227717413971397E+07, 2.236582333452515E+06,
2461582.500000000, A.D. 2027-Jun-26 00:00:00.0000, -2.676756797783455E+05, 1.039618863681115E+08, 3.673461887522556E+06,
2461589.500000000, A.D. 2027-Jul-03 00:00:00.0000, -2.193691594586046E+07, 1.111627025731067E+08, 4.953918597271375E+06,
2461596.500000000, A.D. 2027-Jul-10 00:00:00.0000, -4.290232365194804E+07, 1.146551811209521E+08, 6.070437668795221E+06,
2461603.500000000, A.D. 2027-Jul-17 00:00:00.0000, -6.275199228390925E+07, 1.151147006986576E+08, 7.027280779474974E+06,
2461610.500000000, A.D. 2027-Jul-24 00:00:00.0000, -8.126454586581680E+07, 1.130962562960515E+08, 7.833499690174639E+06,
2461617.500000000, A.D. 2027-Jul-31 00:00:00.0000, -9.832846605358346E+07, 1.090475548070188E+08, 8.499574372606181E+06,
2461624.500000000, A.D. 2027-Aug-07 00:00:00.0000, -1.138949365391707E+08, 1.033294133296763E+08, 9.035896724511296E+06,
2461631.500000000, A.D. 2027-Aug-14 00:00:00.0000, -1.279505186937520E+08, 9.623480493769416E+07, 9.452146508867510E+06,
2461638.500000000, A.D. 2027-Aug-21 00:00:00.0000, -1.405012473744088E+08, 8.800442168972811E+07, 9.757085594264880E+06,
2461645.500000000, A.D. 2027-Aug-28 00:00:00.0000, -1.515632892898870E+08, 7.883879228796218E+07, 9.958541656073499E+06,
2461652.500000000, A.D. 2027-Sep-04 00:00:00.0000, -1.611574108230711E+08, 6.890756922605105E+07, 1.006347292800951E+07,
2461659.500000000, A.D. 2027-Sep-11 00:00:00.0000, -1.693056863619489E+08, 5.835664480072735E+07, 1.007806286002903E+07,
2461666.500000000, A.D. 2027-Sep-18 00:00:00.0000, -1.760295387415749E+08, 4.731364971242386E+07, 1.000782096729608E+07,
2461673.500000000, A.D. 2027-Sep-25 00:00:00.0000, -1.813485798415589E+08, 3.589226274777881E+07, 9.857679695270376E+06,
2461680.500000000, A.D. 2027-Oct-02 00:00:00.0000, -1.852799365054197E+08, 2.419565440742829E+07, 9.632083758016478E+06,
2461687.500000000, A.D. 2027-Oct-09 00:00:00.0000, -1.878378734957027E+08, 1.231930699613703E+07, 9.335071579290744E+06,
2461694.500000000, A.D. 2027-Oct-16 00:00:00.0000, -1.890336004294862E+08, 3.533954453623262E+05, 8.970349969570294E+06,
2461701.500000000, A.D. 2027-Oct-23 00:00:00.0000, -1.888751955930306E+08, -1.161512739607956E+07, 8.541363911965517E+06,
2461708.500000000, A.D. 2027-Oct-30 00:00:00.0000, -1.873676090424907E+08, -2.350062355941010E+07, 8.051363824375478E+06,
2461715.500000000, A.D. 2027-Nov-06 00:00:00.0000, -1.845127295167060E+08, -3.521693902142365E+07, 7.503473254868813E+06,
2461722.500000000, A.D. 2027-Nov-13 00:00:00.0000, -1.803095168872279E+08, -4.667555764937529E+07, 6.900760301277051E+06,
2461729.500000000, A.D. 2027-Nov-20 00:00:00.0000, -1.747542127707714E+08, -5.778364792678937E+07, 6.246316364396755E+06,
2461736.500000000, A.D. 2027-Nov-27 00:00:00.0000, -1.678406617547283E+08, -6.844189630658457E+07, 5.543347576253228E+06,
2461743.500000000, A.D. 2027-Dec-04 00:00:00.0000, -1.595608046255431E+08, -7.854200521689533E+07, 4.795286244932428E+06,
2461750.500000000, A.D. 2027-Dec-11 00:00:00.0000, -1.499054414567975E+08, -8.796370717535791E+07, 4.005932168230880E+06,
2461757.500000000, A.D. 2027-Dec-18 00:00:00.0000, -1.388654217974145E+08, -9.657110434089781E+07, 3.179637948475983E+06,
2461764.500000000, A.D. 2027-Dec-25 00:00:00.0000, -1.264335176197300E+08, -1.042080849143290E+08, 2.321559167861968E+06,
2461771.500000000, A.D. 2028-Jan-01 00:00:00.0000, -1.126073987713426E+08, -1.106924926963403E+08, 1.438000716132246E+06,
$$EOE